QIANFAN-147             
1 69106U 26108C   26160.55377937 -.02017754  00000+0 -11953+1 0  9996
2 69106  89.0114  23.0669 0014718 118.7738 241.4928 14.11706592  3266
QIANFAN-148             
1 69107U 26108D   26160.54694630 -.02009674  00000+0 -11791+1 0  9990
2 69107  89.0114  23.0658 0016880 127.2839 232.9888 14.12197069  3268
QIANFAN-149             
1 69108U 26108E   26160.54362263 -.02028000  00000+0 -11865+1 0  9991
2 69108  89.0116  23.0657 0015226 129.8129 230.4400 14.12404547  3268
QIANFAN-150             
1 69109U 26108F   26160.53401155 -.02000551  00000+0 -11508+1 0  9990
2 69109  89.0114  23.0643 0016117 137.3412 222.9029 14.13259638  3264
QIANFAN-151             
1 69110U 26108G   26160.52830355 -.02089157  00000+0 -11944+1 0  9992
2 69110  89.0114  23.0632 0017289 146.2506 213.9785 14.13765677  3262
QIANFAN-152             
1 69111U 26108H   26160.52170629 -.01983699  00000+0 -11278+1 0  9997
2 69111  89.0111  23.0623 0015915 140.1286 220.1073 14.13865528  3268
QIANFAN-153             
1 69112U 26108J   26160.51608920 -.01972703  00000+0 -11160+1 0  9991
2 69112  89.0109  23.0608 0017477 143.3323 216.9063 14.14098783  3265
QIANFAN-154             
1 69113U 26108K   26160.50948027 -.02122576  00000+0 -11832+1 0  9998
2 69113  89.0110  23.0612 0021034 149.2955 210.9468 14.15172459  3260
QIANFAN-155             
1 69114U 26108L   26160.51322349 -.02095651  00000+0 -11783+1 0  9991
2 69114  89.0106  23.0617 0019774 148.3485 211.8896 14.14664207  3268
QIANFAN-156             
1 69115U 26108M   26160.50237119 -.01972999  00000+0 -10892+1 0  9999
2 69115  89.0116  23.0602 0018341 152.9079 207.3070 14.15415996  3267
QIANFAN-157             
1 69116U 26108N   26160.54540010 -.02038503  00000+0 -10985+1 0  9999
2 69116  89.0109  23.0472 0021158 157.0719 203.1418 14.16823493  3279
QIANFAN-158             
1 69117U 26108P   26160.56518236 -.02054518  00000+0 -11059+1 0  9994
2 69117  89.0116  23.0507 0021633 153.2309 207.0001 14.16909483  3273
QIANFAN-159             
1 69118U 26108Q   26160.55983010 -.01984920  00000+0 -10581+1 0  9997
2 69118  89.0109  23.0491 0017293 161.1215 199.0619 14.17335561  3275
QIANFAN-160             
1 69119U 26108R   26160.55662846 -.02058846  00000+0 -11139+1 0  9999
2 69119  89.0119  23.0494 0019983 160.1989 199.9979 14.16664674  3272
QIANFAN-161             
1 69120U 26108S   26160.55192860 -.02044689  00000+0 -10770+1 0  9995
2 69120  89.0112  23.0486 0020141 152.5315 207.6943 14.18073223  3278
QIANFAN-162             
1 69121U 26108T   26160.54924992 -.02082426  00000+0 -10848+1 0  9991
2 69121  89.0113  23.0480 0020643 147.7858 212.4598 14.18734769  3278
SMILE                   
1 69123U 26109A   26144.65318427 -.00001976  00000+0 -42379-3 0  9994
2 69123  70.0007 229.2745 0009123 259.5159 100.4951 14.57062785   802
STARLINK-37726          
1 69124U 26110A   26160.58337963  .00011027  00000+0  20424-3 0  9996
2 69124  97.2854 356.7319 0001638  91.7957 112.6967 15.49173604  4432
STARLINK-37722          
1 69125U 26110B   26160.58337963  .00027020  00000+0  49751-3 0  9991
2 69125  97.2850 356.8925 0001631  68.3450 155.1415 15.49145429  4483
STARLINK-37715          
1 69126U 26110C   26160.58337963 -.02510907  00000+0 -38650-1 0  9991
2 69126  97.2843 356.9767 0001532  72.5783 339.8051 15.57966626  4438
STARLINK-37706          
1 69127U 26110D   26160.58337963 -.02512691  00000+0 -38152-1 0  9991
2 69127  97.2840 356.9811 0001636  67.1555 354.5695 15.58329674  4433
STARLINK-37723          
1 69128U 26110E   26160.58337963 -.02526798  00000+0 -37888-1 0  9990
2 69128  97.2844 356.9856 0001692  64.3306   7.6270 15.58681972  4439
STARLINK-37720          
1 69129U 26110F   26160.58337963  .00015981  00000+0  29498-3 0  9994
2 69129  97.2857 356.7525 0001548  87.7271 165.6927 15.49182214  4434
STARLINK-37533          
1 69130U 26110G   26160.58337963 -.02519443  00000+0 -36262-1 0  9997
2 69130  97.2846 356.9973 0001901  67.4987  31.9427 15.59739961  4433
STARLINK-37530          
1 69131U 26110H   26160.58337963 -.02518405  00000+0 -35756-1 0  9992
2 69131  97.2842 357.0026 0001880  65.9686  42.9082 15.60093717  4439
STARLINK-37660          
1 69132U 26110J   26160.58337963 -.01900253  00000+0 -33597-1 0  9999
2 69132  97.2850 356.9260 0001321 101.9017 196.9207 15.53794135  4439
STARLINK-37633          
1 69133U 26110K   26160.58337963 -.02480727  00000+0 -42370-1 0  9999
2 69133  97.2851 356.9406 0001812  94.5095 232.8088 15.55133062  4436
STARLINK-37361          
1 69134U 26110L   26160.58337963 -.02524285  00000+0 -34402-1 0  9995
2 69134  97.2848 357.0134 0001978  66.3987  68.9492 15.61161135  4439
STARLINK-37372          
1 69135U 26110M   26160.58337963 -.02940573  00000+0 -56078-1 0  9991
2 69135  97.2846 356.9512 0001420  60.9701 294.6220 15.52156394  4430
